     2.100          NAVIGATION                              RINEX VERSION / TYPE
fic2rin                                 11/24/2009 00:55:29 PGM / RUN BY / DATE
                                                            END OF HEADER
12 09 11 23 14  0  0.0 -.186101533473D-03  .522959453519D-11  .000000000000D+00
     .280000000000D+02 -.694687500000D+02  .447625788268D-08 -.257089536697D+00
    -.362470746040D-05  .317546050064D-02  .765547156334D-05  .515380914307D+04
     .136800000000D+06  .186264514923D-08  .541702197625D+00 -.149011611938D-07
     .968895475917D+00  .237937500000D+03 -.562567900594D+00 -.806569311135D-08
     .582167106740D-10  .100000000000D+01  .155900000000D+04  .000000000000D+00
     .240000000000D+01  .000000000000D+00 -.121071934700D-07  .280000000000D+02
     .129606000000D+06  .400000000000D+01
13 09 11 23 14  0  0.0  .306358560920D-03  .113686837722D-12  .000000000000D+00
     .460000000000D+02  .436562500000D+02  .360586448444D-08  .200753800263D+01
     .227242708206D-05  .393738178536D-02  .734068453312D-05  .515362342072D+04
     .136800000000D+06  .894069671631D-07 -.149648444786D+01 -.260770320892D-07
     .993849802313D+00  .253437500000D+03  .165425845256D+01 -.764746140461D-08
     .910752222200D-10  .100000000000D+01  .155900000000D+04  .000000000000D+00
     .240000000000D+01  .000000000000D+00 -.111758708954D-07  .460000000000D+02
     .129606000000D+06  .400000000000D+01
14 09 11 23 14  0  0.0 -.208499841392D-04  .477484718431D-11  .000000000000D+00
     .360000000000D+02  .575625000000D+02  .374015579250D-08  .191899935071D+01
     .297464430332D-05  .508753058966D-02  .784918665886D-05  .515367790031D+04
     .136800000000D+06 -.745058059692D-07 -.151712770390D+01 -.109896063805D-06
     .987235784367D+00  .239000000000D+03 -.211322906475D+01 -.777210945384D-08
     .910752222200D-10  .100000000000D+01  .155900000000D+04  .000000000000D+00
     .240000000000D+01  .000000000000D+00 -.884756445885D-08  .360000000000D+02
     .129606000000D+06  .400000000000D+01
15 09 11 23 14  0  0.0 -.319676939398D-03  .682121026330D-12  .000000000000D+00
     .100000000000D+02  .548750000000D+02  .451054502516D-08  .212929441416D+01
     .287033617496D-05  .204435747582D-02  .663660466671D-05  .515369335365D+04
     .136800000000D+06  .130385160446D-07 -.157532024150D+01  .167638063431D-07
     .955061233105D+00  .248281250000D+03 -.467669228415D+00 -.811819529828D-08
     .117862052285D-10  .100000000000D+01  .155900000000D+04  .000000000000D+00
     .240000000000D+01  .000000000000D+00 -.977888703346D-08  .100000000000D+02
     .129606000000D+06  .400000000000D+01
16 09 11 23 14  0  0.0 -.116606242955D-04 -.420641299570D-11  .000000000000D+00
     .510000000000D+02 -.775312500000D+02  .438982571100D-08 -.268253016869D+01
    -.386126339436D-05  .535192550160D-02  .754371285439D-05  .515366347694D+04
     .136800000000D+06 -.689178705215D-07  .558896616973D+00  .465661287308D-07
     .970221466327D+00  .240468750000D+03 -.269886964115D+00 -.792283001767D-08
     .171435712414D-10  .100000000000D+01  .155900000000D+04  .000000000000D+00
     .240000000000D+01  .000000000000D+00 -.977888703346D-08  .510000000000D+02
     .129606000000D+06  .400000000000D+01
17 09 11 23 14  0  0.0  .105106271803D-03  .363797880709D-11  .000000000000D+00
     .970000000000D+02 -.105625000000D+02  .455590405741D-08  .242985045810D+01
    -.540167093277D-06  .481558276806D-02  .901892781258D-05  .515375874519D+04
     .136800000000D+06 -.117346644402D-06  .160178384146D+01 -.856816768646D-07
     .959516209256D+00  .205968750000D+03 -.264835338143D+01 -.791318675885D-08
     .200722646618D-09  .100000000000D+01  .155900000000D+04  .000000000000D+00
     .240000000000D+01  .000000000000D+00 -.102445483208D-07  .970000000000D+02
     .129606000000D+06  .400000000000D+01
18 09 11 23 14  0  0.0  .296724028885D-04  .272848410532D-11  .000000000000D+00
     .460000000000D+02  .239687500000D+02  .482377235805D-08 -.248910163929D+01
     .125169754028D-05  .109069824684D-01  .791810452938D-05  .515364833641D+04
     .136800000000D+06  .108033418655D-06 -.258113867255D+01 -.126659870148D-06
     .940077850587D+00  .214656250000D+03 -.235877453787D+01 -.804676375144D-08
    -.239295681911D-09  .100000000000D+01  .155900000000D+04  .000000000000D+00
     .240000000000D+01  .000000000000D+00 -.107102096081D-07  .460000000000D+02
     .129606000000D+06  .400000000000D+01
19 09 11 23 14  0  0.0 -.210013240576D-06 -.193267624127D-11  .000000000000D+00
     .930000000000D+02 -.108437500000D+02  .473876881731D-08  .175642751453D+01
    -.339001417160D-06  .591188448016D-02  .902265310287D-05  .515367418289D+04
     .136800000000D+06  .122934579849D-06  .165734268179D+01  .856816768646D-07
     .957191632428D+00  .201406250000D+03 -.198714356702D+00 -.801997692137D-08
     .110718897601D-09  .100000000000D+01  .155900000000D+04  .000000000000D+00
     .240000000000D+01  .000000000000D+00 -.144354999065D-07  .930000000000D+02
     .129606000000D+06  .400000000000D+01
20 09 11 23 14  0  0.0  .669835135341D-04 -.795807864051D-12  .000000000000D+00
     .360000000000D+02  .138437500000D+02  .493949146393D-08 -.231252966831D+01
     .786036252975D-06  .400683365297D-02  .751949846745D-05  .515373220634D+04
     .136800000000D+06  .447034835815D-07 -.263502250678D+01 -.800937414169D-07
     .939858848825D+00  .225062500000D+03  .128799075590D+01 -.816141138411D-08
    -.339657005220D-09  .100000000000D+01  .155900000000D+04  .000000000000D+00
     .240000000000D+01  .000000000000D+00 -.745058059692D-08  .360000000000D+02
     .129606000000D+06  .400000000000D+01
21 09 11 23 14  0  0.0 -.231596641243D-04 -.238742359215D-11  .000000000000D+00
     .120000000000D+03  .210625000000D+02  .531700718898D-08 -.130134383326D+01
     .102072954178D-05  .156843599398D-01  .637583434582D-05  .515372948074D+04
     .136800000000D+06  .359490513802D-06  .264466276242D+01 -.156462192535D-06
     .933394899941D+00  .239000000000D+03 -.254582180836D+01 -.830606026646D-08
    -.307155651409D-10  .100000000000D+01  .155900000000D+04  .000000000000D+00
     .340000000000D+01  .000000000000D+00 -.121071934700D-07  .120000000000D+03
     .129606000000D+06  .400000000000D+01
22 09 11 23 14  0  0.0  .185632146895D-03 -.909494701773D-12  .000000000000D+00
     .600000000000D+02  .234062500000D+02  .492413368136D-08  .276384647451D+01
     .118091702461D-05  .525658833794D-02  .774487853050D-05  .515366291428D+04
     .136800000000D+06  .689178705215D-07 -.257583276376D+01 -.260770320892D-07
     .937750252834D+00  .216437500000D+03 -.187469988864D+01 -.812783855710D-08
    -.332871008271D-09  .100000000000D+01  .155900000000D+04  .000000000000D+00
     .240000000000D+01  .000000000000D+00 -.176951289177D-07  .600000000000D+02
     .129606000000D+06  .400000000000D+01
23 09 11 23 14  0  0.0  .385593622923D-03 -.568434188608D-12  .000000000000D+00
     .230000000000D+02  .461562500000D+02  .418053127877D-08  .122929473311D+01
     .253878533840D-05  .634918408468D-02  .718981027603D-05  .515375258255D+04
     .136800000000D+06  .186264514923D-07 -.155281491896D+01  .156462192535D-06
     .969150711234D+00  .243875000000D+03  .300744084209D+01 -.793283043423D-08
    -.285726187357D-11  .100000000000D+01  .155900000000D+04  .000000000000D+00
     .240000000000D+01  .000000000000D+00 -.200234353542D-07  .230000000000D+02
     .129606000000D+06  .400000000000D+01
24 09 11 23 14  0  0.0  .238971784711D-03  .318323145621D-11  .000000000000D+00
     .860000000000D+02  .160625000000D+02  .495127766916D-08 -.264029040603D+01
     .718981027603D-06  .619515078142D-02  .691972672939D-05  .515366661644D+04
     .136800000000D+06 -.409781932831D-07  .267982841208D+01  .106170773506D-06
     .950038219031D+00  .242250000000D+03 -.576763383230D+00 -.812855287257D-08
    -.182150444440D-09  .100000000000D+01  .155900000000D+04  .000000000000D+00
     .240000000000D+01  .630000000000D+02 -.139698386192D-08  .860000000000D+02
     .129606000000D+06  .400000000000D+01
25 09 11 23 14  0  0.0  .297133810818D-04  .144382283906D-10  .000000000000D+00
     .320000000000D+02  .650000000000D+01  .425660587615D-08 -.208386590995D+01
     .609084963799D-06  .114141675876D-01  .447221100330D-05  .515370052147D+04
     .136800000000D+06  .447034835815D-07 -.604950871226D+00  .253319740295D-06
     .971748861058D+00  .297031250000D+03 -.122344445934D+01 -.797354641593D-08
     .162506769059D-09  .100000000000D+01  .155900000000D+04  .000000000000D+00
     .240000000000D+01  .000000000000D+00 -.745058059692D-08  .320000000000D+02
     .129606000000D+06  .400000000000D+01
27 09 11 23 14  0  0.0  .102301593870D-03  .318323145621D-11  .000000000000D+00
     .770000000000D+02 -.128750000000D+02  .415803034151D-08  .200577390483D+01
    -.100024044514D-05  .215878864983D-01  .365264713764D-05  .515371325111D+04
     .136800000000D+06  .409781932831D-06 -.567992722674D+00 -.217929482460D-06
     .976631993831D+00  .314500000000D+03 -.151603532395D+01 -.780353933445D-08
     .607168148133D-10  .100000000000D+01  .155900000000D+04  .000000000000D+00
     .340000000000D+01  .000000000000D+00 -.419095158577D-08  .770000000000D+02
     .129606000000D+06  .400000000000D+01
28 09 11 23 14  0  0.0 -.252258032560D-04  .227373675443D-12  .000000000000D+00
     .960000000000D+02 -.751875000000D+02  .426124892669D-08  .301470361300D+01
    -.395253300667D-05  .153641389916D-01  .758655369282D-05  .515366196251D+04
     .136800000000D+06  .949949026108D-07  .566857236382D+00 -.223517417908D-06
     .968437238772D+00  .236500000000D+03 -.200916320221D+01 -.768353433576D-08
     .414302971667D-10  .100000000000D+01  .155900000000D+04  .000000000000D+00
     .240000000000D+01  .000000000000D+00 -.107102096081D-07  .960000000000D+02
     .129606000000D+06  .400000000000D+01
